#aV2022  7  2  0  0  0.00000000     288 DD+AD WGS84 FIT  NGA
## 2216 518400.00000000   300.00000000 59762 0.0000000000000
+   32     1  2  3  4  5  6  7  8  9 10 11 12 13 14 15 16 17
+         18 19 20 21 22 23 24 25 26 27 28 29 30 31 32  0  0
+          0  0  0  0  0  0  0  0  0  0  0  0  0  0  0  0  0
+          0  0  0  0  0  0  0  0  0  0  0  0  0  0  0  0  0
+          0  0  0  0  0  0  0  0  0  0  0  0  0  0  0  0  0
++         2  2  2  2  2  2  2  2  2  2  2  2  2  2  2  2  2
++         2  2  2  2  2  2  2  2  2  2  2  2  2  2  2  0  0
++         0  0  0  0  0  0  0  0  0  0  0  0  0  0  0  0  0
++         0  0  0  0  0  0  0  0  0  0  0  0  0  0  0  0  0
++         0  0  0  0  0  0  0  0  0  0  0  0  0  0  0  0  0
%c cc cc ccc ccc cccc cccc cccc cccc ccccc ccccc ccccc ccccc
%c cc cc ccc ccc cccc cccc cccc cccc ccccc ccccc ccccc ccccc
%f  0.0000000  0.000000000  0.00000000000  0.000000000000000
%f  0.0000000  0.000000000  0.00000000000  0.000000000000000
%i    0    0    0    0      0      0      0      0         0
%i    0    0    0    0      0      0      0      0         0
/*      NGA, ST. LOUIS,MO.                                  
/*   EPHEMERIS COMPUTED FROM 2 DAYS OF DATA                 
/*   EPOCHA v7 SMOOTHER                                     
/*   G2139 IERS2010 SATIGS SATAPC                           
*  2022  7  2  5 20  0.00000000
P  1 -22209.883864 -14527.061713  -3654.800638    329.651528                    
V  1   4467.266344    546.109767 -31676.613814     -0.076303                    
P  2   5008.549844  17224.758910  20189.374626   -652.037268                    
V  2 -22780.503452  -8392.437233  13400.118019      0.005073                    
P  3 -12342.844539 -16183.106975  17009.508974   -295.684899                    
V  3    405.648588 -21791.977917 -20186.763427     -0.109960                    
P  4 -15949.680169  -6843.732471  20138.264069   -150.739518                    
V  4  21385.363977 -13972.584145  12107.333941      0.043366                    
P  5   6146.144352  25204.583270  -5492.155920    -87.616462                    
V  5  -2172.545714   7010.766352  30841.014220     -0.013823                    
P  6 -10542.155185  10825.304167  21911.894898    367.411924                    
V  6 -24343.906901 -12992.389745  -5232.776395      0.160387                    
P  7 -24087.288832  -3951.352849 -10639.094957    320.580168                    
V  7 -11255.510334  -8642.979554  27134.606549     -0.010318                    
P  8  -9085.573547 -12176.946724 -21828.648490    -74.486367                    
V  8  22915.933843 -15403.911715   -603.378205     -0.015860                    
P  9 -22319.924462   3047.972749  14032.986862   -323.108510                    
V  9  13592.734138 -11920.704397  24057.344427      0.036470                    
P 10  11718.430436 -14851.734895 -18370.009551   -476.649305                    
V 10   2714.280083  23594.314887 -17493.503987     -0.141164                    
P 11   3149.432934  17638.105314  19608.587190    -11.982378                    
V 11 -22096.060427 -11533.668159  13896.183486      0.015246                    
P 12   9752.382491  19617.575499  14826.663635   -239.983774                    
V 12  -2305.800432  19190.043934 -23349.901803     -0.058964                    
P 13  -2012.155327  16651.897091 -20706.007415    340.519539                    
V 13 -23904.526158  10171.625605  10756.425190      0.070437                    
P 14 -13222.580659  13252.124118 -18800.589781   -112.016954                    
V 14  -1855.675326 -23918.462117 -15650.758869     -0.000438                    
P 15  10774.350000  11926.246709 -21567.083243    -48.721773                    
V 15 -20305.576394  17077.184023   -401.269098      0.030152                    
P 16    438.339210 -26297.611204   -910.531823   -512.814591                    
V 16   2978.203520   -721.981205  32211.732446     -0.024134                    
P 17 -22574.730517  13986.188435   1719.386276    631.932694                    
V 17  -2513.360184  -1105.220690 -32012.013882      0.045442                    
P 18  23728.738842   3931.819310 -11410.280556    125.629571                    
V 18  11728.402940   8617.406578  27267.217712     -0.111638                    
P 19 -18469.593788  16331.953703   9314.818200    178.240454                    
V 19 -11978.388718   3436.960296 -29203.902991      0.050098                    
P 20    271.734290  25755.343399   6958.116566    506.656824                    
V 20  -4732.747680  -7993.155194  29557.387482     -0.031617                    
P 21 -17682.375274 -16131.799603 -11596.658990    161.237927                    
V 21  15069.378895   4020.781192 -26418.889779     -0.000915                    
P 22  15609.860484 -17909.857205  12109.222964    285.348364                    
V 22  14157.188795  -4889.886716 -26570.462292      0.064019                    
P 23  14754.955250  -3389.729352 -21828.176418    -30.975298                    
V 23   2393.356604  27566.138756  -2771.283717     -0.018602                    
P 24  20828.454403  15005.461334  -7909.451422    207.369443                    
V 24  -9992.805366   -889.630692 -28712.720946     -0.092808                    
P 25  15061.827649   5759.793043  20862.975437    344.253585                    
V 25    880.243486  27114.469457  -7747.023946      0.045411                    
P 26   4924.330202 -23863.290994  10102.871048    215.810120                    
V 26   4764.795369  12668.573513  27675.759776      0.022482                    
P 27   4753.474622 -18289.710166 -18714.499904    219.280669                    
V 27  20460.476867 -11510.985145  17019.994086      0.017953                    
P 28  -9378.823998  21450.682183 -12251.569074    329.312108                    
V 28  -1403.155664 -16348.558484 -26232.031088      0.060484                    
P 29  22646.773819  -1808.195449  13769.243687   -529.606809                    
V 29 -14580.788040   9830.920073  25103.439635     -0.036549                    
P 30 -18870.013364   4996.748224 -18031.792036   -532.976661                    
V 30 -19492.774620 -12473.015401  16604.242217     -0.009831                    
P 31   8747.185140 -12624.203409  21554.896600   -184.100753                    
V 31  24334.315569  13206.346988  -1671.453399     -0.015454                    
P 32  20554.457042 -16339.524832   3388.167234   -165.571557                    
V 32   5121.058196    245.361401 -31434.638271     -0.097151                    
EOF
